{"type": "FeatureCollection", "features": [ {"type": "Feature", "properties": {"norad_id": 34910, "name": "COSMOS 2251 DEB", "group": "cosmos-2251-debris", "lat": 71.65444430884637, "lon": -154.50426251760405, "alt_km": 1184.3015299026947, "timestamp": "2025-12-22T08:58:20.758198+00:00", "meta": {"OBJECT_NAME": "COSMOS 2251 DEB", "OBJECT_ID": "1993-036ADF", "EPOCH": "2025-12-21T14:51:00.254880", "MEAN_MOTION": 13.37701578, "ECCENTRICITY": 0.0467839, "INCLINATION": 73.8764, "RA_OF_ASC_NODE": 87.4128, "ARG_OF_PERICENTER": 204.8988, "MEAN_ANOMALY": 224.1409, "EPHEMERIS_TYPE": 0, "CLASSIFICATION_TYPE": "U", "NORAD_CAT_ID": 34910, "ELEMENT_SET_NO": 999, "REV_AT_EPOCH": 81643, "BSTAR": 0.00088658, "MEAN_MOTION_DOT": 8.55e-06, "MEAN_MOTION_DDOT": 0}, "tle": {"line1": "1 34910U 93036ADF 25355.61875295  .00000855  00000+0  88658-3 0  9996", "line2": "2 34910  73.8764  87.4128 0467839 204.8988 224.1409 13.37701578816436"}}, "geometry": {"type": "Point", "coordinates": [-154.50426251760405, 71.65444430884637]}}, {"type": "Feature", "properties": {"norad_id": 34911, "name": "COSMOS 2251 DEB", "group": "cosmos-2251-debris", "lat": 38.39693234057195, "lon": 33.276178347075536, "alt_km": 743.4725739631931, "timestamp": "2025-12-22T08:58:20.758208+00:00", "meta": {"OBJECT_NAME": "COSMOS 2251 DEB", "OBJECT_ID": "1993-036ADG", "EPOCH": "2025-12-22T02:26:52.952064", "MEAN_MOTION": 14.59385531, "ECCENTRICITY": 0.0084044, "INCLINATION": 74.0407, "RA_OF_ASC_NODE": 226.9021, "ARG_OF_PERICENTER": 349.9648, "MEAN_ANOMALY": 161.5758, "EPHEMERIS_TYPE": 0, "CLASSIFICATION_TYPE": "U", "NORAD_CAT_ID": 34911, "ELEMENT_SET_NO": 999, "REV_AT_EPOCH": 88723, "BSTAR": 0.00010574, "MEAN_MOTION_DOT": 4.93e-06, "MEAN_MOTION_DDOT": 0}, "tle": {"line1": "1 34911U 93036ADG 25356.10200176  .00000493  00000+0  10574-3 0  9992", "line2": "2 34911  74.0407 226.9021 0084044 349.9648 161.5758 14.59385531887232"}}, "geometry": {"type": "Point", "coordinates": [33.276178347075536, 38.39693234057195]}}, {"type": "Feature", "properties": {"norad_id": 34913, "name": "COSMOS 2251 DEB", "group": "cosmos-2251-debris", "lat": 4.594958110408824, "lon": -93.83768558475353, "alt_km": 763.5563900509915, "timestamp": "2025-12-22T08:58:20.758218+00:00", "meta": {"OBJECT_NAME": "COSMOS 2251 DEB", "OBJECT_ID": "1993-036ADJ", "EPOCH": "2025-12-21T12:00:36.342432", "MEAN_MOTION": 14.34639943, "ECCENTRICITY": 0.00207047, "INCLINATION": 74.0285, "RA_OF_ASC_NODE": 266.4434, "ARG_OF_PERICENTER": 13.9816, "MEAN_ANOMALY": 161.7419, "EPHEMERIS_TYPE": 0, "CLASSIFICATION_TYPE": "U", "NORAD_CAT_ID": 34913, "ELEMENT_SET_NO": 999, "REV_AT_EPOCH": 65313, "BSTAR": 4.3870278e-05, "MEAN_MOTION_DOT": 9.8e-07, "MEAN_MOTION_DDOT": 0}, "tle": {"line1": "1 34913U 93036ADJ 25355.50042063  .00000098  00000+0  43870-4 0  9993", "line2": "2 34913  74.0285 266.4434 0020704  13.9816 161.7419 14.34639943653131"}}, "geometry": {"type": "Point", "coordinates": [-93.83768558475353, 4.594958110408824]}}, {"type": "Feature", "properties": {"norad_id": 34918, "name": "COSMOS 2251 DEB", "group": "cosmos-2251-debris", "lat": -5.14488010909951, "lon": -66.22832315143094, "alt_km": 693.5593714789211, "timestamp": "2025-12-22T08:58:20.758229+00:00", "meta": {"OBJECT_NAME": "COSMOS 2251 DEB", "OBJECT_ID": "1993-036ADP", "EPOCH": "2025-12-21T14:05:26.774880", "MEAN_MOTION": 14.61333031, "ECCENTRICITY": 0.0033087, "INCLINATION": 74.0718, "RA_OF_ASC_NODE": 296.7456, "ARG_OF_PERICENTER": 262.7787, "MEAN_ANOMALY": 274.4433, "EPHEMERIS_TYPE": 0, "CLASSIFICATION_TYPE": "U", "NORAD_CAT_ID": 34918, "ELEMENT_SET_NO": 999, "REV_AT_EPOCH": 65465, "BSTAR": 0.0013097, "MEAN_MOTION_DOT": 6.498e-05, "MEAN_MOTION_DDOT": 0}, "tle": {"line1": "1 34918U 93036ADP 25355.58711545  .00006498  00000+0  13097-2 0  9990", "line2": "2 34918  74.0718 296.7456 0033087 262.7787 274.4433 14.61333031654651"}}, "geometry": {"type": "Point", "coordinates": [-66.22832315143094, -5.14488010909951]}}, {"type": "Feature", "properties": {"norad_id": 34924, "name": "COSMOS 2251 DEB", "group": "cosmos-2251-debris", "lat": -48.43000191609117, "lon": 52.24474068351967, "alt_km": 733.8853306914434, "timestamp": "2025-12-22T08:58:20.758239+00:00", "meta": {"OBJECT_NAME": "COSMOS 2251 DEB", "OBJECT_ID": "1993-036ADV", "EPOCH": "2025-12-20T23:28:59.668032", "MEAN_MOTION": 14.60097055, "ECCENTRICITY": 0.005367, "INCLINATION": 74.0409, "RA_OF_ASC_NODE": 73.7294, "ARG_OF_PERICENTER": 156.3257, "MEAN_ANOMALY": 20.7829, "EPHEMERIS_TYPE": 0, "CLASSIFICATION_TYPE": "U", "NORAD_CAT_ID": 34924, "ELEMENT_SET_NO": 999, "REV_AT_EPOCH": 87843, "BSTAR": 0.00054642, "MEAN_MOTION_DOT": 2.652e-05, "MEAN_MOTION_DDOT": 0}, "tle": {"line1": "1 34924U 93036ADV 25354.97846838  .00002652  00000+0  54642-3 0  9993", "line2": "2 34924  74.0409  73.7294 0053670 156.3257  20.7829 14.60097055878435"}}, "geometry": {"type": "Point", "coordinates": [52.24474068351967, -48.43000191609117]}}, {"type": "Feature", "properties": {"norad_id": 34944, "name": "COSMOS 2251 DEB", "group": "cosmos-2251-debris", "lat": -72.64013390257718, "lon": 103.56948555368095, "alt_km": 997.2760843787873, "timestamp": "2025-12-22T08:58:20.758249+00:00", "meta": {"OBJECT_NAME": "COSMOS 2251 DEB", "OBJECT_ID": "1993-036ADX", "EPOCH": "2025-12-17T02:06:11.847168", "MEAN_MOTION": 14.14195665, "ECCENTRICITY": 0.02198727, "INCLINATION": 73.7495, "RA_OF_ASC_NODE": 224.195, "ARG_OF_PERICENTER": 70.8954, "MEAN_ANOMALY": 291.5851, "EPHEMERIS_TYPE": 0, "CLASSIFICATION_TYPE": "U", "NORAD_CAT_ID": 34944, "ELEMENT_SET_NO": 999, "REV_AT_EPOCH": 64144, "BSTAR": 0.00030334686, "MEAN_MOTION_DOT": 7.03e-06, "MEAN_MOTION_DDOT": 0}, "tle": {"line1": "1 34944U 93036ADX 25351.08763712  .00000703  00000+0  30335-3 0  9991", "line2": "2 34944  73.7495 224.1950 0219872  70.8954 291.5851 14.14195665641448"}}, "geometry": {"type": "Point", "coordinates": [103.56948555368095, -72.64013390257718]}}, {"type": "Feature", "properties": {"norad_id": 34946, "name": "COSMOS 2251 DEB", "group": "cosmos-2251-debris", "lat": -39.400122204961605, "lon": 157.26439328102722, "alt_km": 711.4471712182249, "timestamp": "2025-12-22T08:58:20.758259+00:00", "meta": {"OBJECT_NAME": "COSMOS 2251 DEB", "OBJECT_ID": "1993-036ADZ", "EPOCH": "2025-12-20T14:54:46.280736", "MEAN_MOTION": 14.62033137, "ECCENTRICITY": 0.0048556, "INCLINATION": 74.0223, "RA_OF_ASC_NODE": 327.0088, "ARG_OF_PERICENTER": 101.7315, "MEAN_ANOMALY": 258.9305, "EPHEMERIS_TYPE": 0, "CLASSIFICATION_TYPE": "U", "NORAD_CAT_ID": 34946, "ELEMENT_SET_NO": 999, "REV_AT_EPOCH": 88324, "BSTAR": 0.00036557, "MEAN_MOTION_DOT": 1.835e-05, "MEAN_MOTION_DDOT": 0}, "tle": {"line1": "1 34946U 93036ADZ 25354.62136899  .00001835  00000+0  36557-3 0  9995", "line2": "2 34946  74.0223 327.0088 0048556 101.7315 258.9305 14.62033137883247"}}, "geometry": {"type": "Point", "coordinates": [157.26439328102722, -39.400122204961605]}}, {"type": "Feature", "properties": {"norad_id": 34949, "name": "COSMOS 2251 DEB", "group": "cosmos-2251-debris", "lat": 5.736548138141926, "lon": -90.81094638029442, "alt_km": 621.6241368028759, "timestamp": "2025-12-22T08:58:20.758269+00:00", "meta": {"OBJECT_NAME": "COSMOS 2251 DEB", "OBJECT_ID": "1993-036AEC", "EPOCH": "2025-12-19T23:10:09.715008", "MEAN_MOTION": 14.74045348, "ECCENTRICITY": 0.0080206, "INCLINATION": 74.0194, "RA_OF_ASC_NODE": 95.5416, "ARG_OF_PERICENTER": 239.3679, "MEAN_ANOMALY": 119.957, "EPHEMERIS_TYPE": 0, "CLASSIFICATION_TYPE": "U", "NORAD_CAT_ID": 34949, "ELEMENT_SET_NO": 999, "REV_AT_EPOCH": 88468, "BSTAR": 0.00035104, "MEAN_MOTION_DOT": 2.396e-05, "MEAN_MOTION_DDOT": 0}, "tle": {"line1": "1 34949U 93036AEC 25353.96539022  .00002396  00000+0  35104-3 0  9999", "line2": "2 34949  74.0194  95.5416 0080206 239.3679 119.9570 14.74045348884687"}}, "geometry": {"type": "Point", "coordinates": [-90.81094638029442, 5.736548138141926]}}, {"type": "Feature", "properties": {"norad_id": 34953, "name": "COSMOS 2251 DEB", "group": "cosmos-2251-debris", "lat": -23.873494430076985, "lon": 1.6535201673216295, "alt_km": 631.3471415867589, "timestamp": "2025-12-22T08:58:20.758279+00:00", "meta": {"OBJECT_NAME": "COSMOS 2251 DEB", "OBJECT_ID": "1993-036AEG", "EPOCH": "2025-12-20T12:00:10.528704", "MEAN_MOTION": 14.69018234, "ECCENTRICITY": 0.00585264, "INCLINATION": 74.0926, "RA_OF_ASC_NODE": 12.518, "ARG_OF_PERICENTER": 2.3032, "MEAN_ANOMALY": 148.1108, "EPHEMERIS_TYPE": 0, "CLASSIFICATION_TYPE": "U", "NORAD_CAT_ID": 34953, "ELEMENT_SET_NO": 999, "REV_AT_EPOCH": 88242, "BSTAR": 0.00052437151, "MEAN_MOTION_DOT": 3.125e-05, "MEAN_MOTION_DDOT": 0}, "tle": {"line1": "1 34953U 93036AEG 25354.50012186  .00003125  00000+0  52437-3 0  9991", "line2": "2 34953  74.0926  12.5180 0058526   2.3032 148.1108 14.69018234882422"}}, "geometry": {"type": "Point", "coordinates": [1.6535201673216295, -23.873494430076985]}}, {"type": "Feature", "properties": {"norad_id": 34955, "name": "COSMOS 2251 DEB", "group": "cosmos-2251-debris", "lat": 52.271373227816255, "lon": 25.191910094961965, "alt_km": 612.7423173700272, "timestamp": "2025-12-22T08:58:20.758289+00:00", "meta": {"OBJECT_NAME": "COSMOS 2251 DEB", "OBJECT_ID": "1993-036AEJ", "EPOCH": "2025-12-20T00:24:58.893120", "MEAN_MOTION": 15.00658938, "ECCENTRICITY": 0.00779123, "INCLINATION": 74.0366, "RA_OF_ASC_NODE": 231.6989, "ARG_OF_PERICENTER": 299.5962, "MEAN_ANOMALY": 59.7477, "EPHEMERIS_TYPE": 0, "CLASSIFICATION_TYPE": "U", "NORAD_CAT_ID": 34955, "ELEMENT_SET_NO": 999, "REV_AT_EPOCH": 90143, "BSTAR": 0.00046776562, "MEAN_MOTION_DOT": 6.274e-05, "MEAN_MOTION_DDOT": 0}, "tle": {"line1": "1 34955U 93036AEJ 25354.01734830  .00006274  00000+0  46777-3 0  9994", "line2": "2 34955  74.0366 231.6989 0077912 299.5962  59.7477 15.00658938901431"}}, "geometry": {"type": "Point", "coordinates": [25.191910094961965, 52.271373227816255]}}]}